{
  "type": "FeatureCollection",
  "features": [
    {
      "type": "Feature",
      "geometry": {
        "type": "Polygon",
        "coordinates": [
          [
            [
              101.61360839091485,
              2.930392369219951
            ],
            [
              101.61360839091485,
              2.930392369219951
            ],
            [
              101.61360839091485,
              2.9303744029964514
            ],
            [
              101.61360839091485,
              2.9303744029964514
            ],
            [
              101.61359040021132,
              2.930392369219951
            ],
            [
              101.61359040021132,
              2.930392369219951
            ],
            [
              101.61359040021132,
              2.9303744029964514
            ],
            [
              101.61359040021132,
              2.9303744029964514
            ],
            [
              101.61360839091485,
              2.930392369219951
            ]
          ]
        ]
      },
      "properties": {
        "name": "Cube",
        "type": "MESH"
      }
    }
  ],
  "crs": {
    "type": "name",
    "properties": {
      "name": "urn:ogc:def:crs:EPSG::4326"
    }
  }
}