{
  "type": "Feature",
  "geometry": {
    "type": "Polygon",
    "coordinates": [
      [
        [
          101.308962,
          2.9872005860338997
        ],
        [
          101.3115900794014,
          2.990415816704068
        ],
        [
          101.31486985020882,
          2.9914531819950545
        ],
        [
          101.31765198196575,
          2.990669530543674
        ],
        [
          101.32046899640069,
          2.9879213496735146
        ],
        [
          101.3231669948263,
          3.0023266849736805
        ],
        [
          101.32569399129557,
          3.0052453653987805
        ],
        [
          101.33439701969023,
          3.003909425751986
        ],
        [
          101.33835992241436,
          3.0079376641188085
        ],
        [
          101.34556444013558,
          3.009868726469469
        ],
        [
          101.34978567444561,
          3.0164963024291214
        ],
        [
          101.35274132831711,
          3.016178511351851
        ],
        [
          101.35682270921193,
          3.0129043538288918
        ],
        [
          101.36230575908998,
          3.018641055481243
        ],
        [
          101.36531532744421,
          3.0173606679046645
        ],
        [
          101.36687213982708,
          3.010943060710885
        ],
        [
          101.37256039051604,
          3.007585389175523
        ],
        [
          101.37658480661466,
          3.0076277190790472
        ],
        [
          101.37934418011338,
          3.0031178599706996
        ],
        [
          101.38520152727318,
          3.0008073802433204
        ],
        [
          101.38898628247037,
          3.0084916444480374
        ],
        [
          101.39101210552087,
          3.0099196725969697
        ],
        [
          101.39646436797804,
          3.001971503809538
        ],
        [
          101.39875629054121,
          3.0029536319341346
        ],
        [
          101.40291857005205,
          3.009648639046905
        ],
        [
          101.4102819576264,
          3.0068736875574698
        ],
        [
          101.41584653231831,
          3.0088644905786412
        ],
        [
          101.41783074202431,
          3.003121103859515
        ],
        [
          101.42394875652644,
          3.0025298889983163
        ],
        [
          101.42684901301722,
          3.004589879804795
        ],
        [
          101.42851629745833,
          3.003507259419317
        ],
        [
          101.43271483881915,
          2.994844577643525
        ],
        [
          101.43518969951492,
          2.994144758902396
        ],
        [
          101.44392156758623,
          3.002206687645665
        ],
        [
          101.4507378983426,
          3.0017290961555108
        ],
        [
          101.45674642426287,
          2.9981633756294106
        ],
        [
          101.45830865537012,
          2.9955615757162994
        ],
        [
          101.46515154671185,
          2.992009723289138
        ],
        [
          101.46663391838418,
          2.9559436353280124
        ],
        [
          101.46958574207616,
          2.9501073557740836
        ],
        [
          101.47497743333692,
          2.9473417793130254
        ],
        [
          101.48313259359361,
          2.9489856493738964
        ],
        [
          101.48731792693381,
          2.951992954359042
        ],
        [
          101.49444031669351,
          2.9732177689118235
        ],
        [
          101.50140652675377,
          2.9804799405802953
        ],
        [
          101.5056852214399,
          3.0006684848916914
        ],
        [
          101.51129290005774,
          3.0069667852694604
        ],
        [
          101.51406082519095,
          3.014544854798221
        ],
        [
          101.52091760717619,
          3.0189932469560445
        ],
        [
          101.52393628805379,
          3.0302131412983297
        ],
        [
          101.52585017151489,
          3.0315719019874927
        ],
        [
          101.53707060748408,
          3.028147197671323
        ],
        [
          101.54592341241703,
          3.029606279890377
        ],
        [
          101.55201695526068,
          3.0286936810130674
        ],
        [
          101.55476358966686,
          3.032378556594298
        ],
        [
          101.56036871355113,
          3.0354937142430165
        ],
        [
          101.56302844091523,
          3.0403531507450037
        ],
        [
          101.56740785357157,
          3.0426377135080576
        ],
        [
          101.56884741712925,
          3.0515292165450716
        ],
        [
          101.57018197153265,
          3.0528914904986126
        ],
        [
          101.57164988687046,
          3.0718230608546104
        ],
        [
          101.58284655805483,
          3.0780487095049804
        ],
        [
          101.58701428510284,
          3.08268114967033
        ],
        [
          101.5884613169343,
          3.085619862531624
        ],
        [
          101.589087,
          3.095605
        ],
        [
          101.5885540710508,
          3.085128658090511
        ],
        [
          101.58714451888967,
          3.0825456120281767
        ],
        [
          101.58297434083413,
          3.077950292574137
        ],
        [
          101.57325312241204,
          3.0725552312213877
        ],
        [
          101.57177136925417,
          3.055200835813412
        ],
        [
          101.56754038469778,
          3.042257833260654
        ],
        [
          101.56334164741004,
          3.040080967606271
        ],
        [
          101.56050359580057,
          3.0352180633681702
        ],
        [
          101.55497008897395,
          3.0321480545813264
        ],
        [
          101.55206035883955,
          3.028370445514218
        ],
        [
          101.54617933141243,
          3.029271290511352
        ],
        [
          101.5388440151738,
          3.0279665946357786
        ],
        [
          101.5314311694941,
          3.028848947569654
        ],
        [
          101.5254492819537,
          3.0310772981026624
        ],
        [
          101.5240559494695,
          3.029710418206406
        ],
        [
          101.52118270016224,
          3.0188055566873926
        ],
        [
          101.5142813236697,
          3.0141997353804393
        ],
        [
          101.51154627968639,
          3.006718891459612
        ],
        [
          101.50580365735183,
          2.999807841351737
        ],
        [
          101.50150151674237,
          2.9800362107365475
        ],
        [
          101.49477574360787,
          2.972854051198167
        ],
        [
          101.48884936293678,
          2.954218174823896
        ],
        [
          101.48746574228188,
          2.951388255543633
        ],
        [
          101.48327104862835,
          2.9484574114839806
        ],
        [
          101.47453213751194,
          2.946933
        ],
        [
          101.47038908477234,
          2.948612844977535
        ],
        [
          101.46776631652757,
          2.951595837869664
        ],
        [
          101.46350698691403,
          2.9602777363669177
        ],
        [
          101.46217160654413,
          2.970264198423227
        ],
        [
          101.46067024340499,
          2.971610309843021
        ],
        [
          101.45778552853027,
          2.9949847477865483
        ],
        [
          101.45509490233584,
          2.998436848735625
        ],
        [
          101.45057912069038,
          3.0008278907262866
        ],
        [
          101.44416055618935,
          3.0013965463326358
        ],
        [
          101.4344272363977,
          2.9931161805663757
        ],
        [
          101.43246850487678,
          2.9941541756650154
        ],
        [
          101.42838246015256,
          3.0019341478688637
        ],
        [
          101.42589348887569,
          3.0030208847682185
        ],
        [
          101.4235733144167,
          3.001698155906049
        ],
        [
          101.41527830194529,
          3.002354415480524
        ],
        [
          101.41189823191347,
          3.0058298800171164
        ],
        [
          101.40456525527296,
          3.008536482200108
        ],
        [
          101.40183219745093,
          3.007559054868777
        ],
        [
          101.40048301383631,
          3.003690165426219
        ],
        [
          101.3974940600691,
          3.0012578900043936
        ],
        [
          101.39589541920625,
          3.0018093776611643
        ],
        [
          101.39191976970618,
          3.0074418651170465
        ],
        [
          101.3894037989292,
          3.0075208414791295
        ],
        [
          101.38782657941134,
          3.000709786615252
        ],
        [
          101.38595331045155,
          2.9997438172303803
        ],
        [
          101.37912818411245,
          3.001939709905125
        ],
        [
          101.37577409937072,
          3.0065945196242234
        ],
        [
          101.37209342363528,
          3.0067617335561074
        ],
        [
          101.36662565605823,
          3.010163495421205
        ],
        [
          101.3635136985923,
          3.017640033127055
        ],
        [
          101.36127807236873,
          3.0171213485845505
        ],
        [
          101.35879089132621,
          3.013445036110989
        ],
        [
          101.35601323131347,
          3.0120681248205474
        ],
        [
          101.3500388427805,
          3.0156958169020984
        ],
        [
          101.34581757773682,
          3.008887546850374
        ],
        [
          101.33724996174683,
          3.0057867381928824
        ],
        [
          101.33602516484461,
          3.0042926067985345
        ],
        [
          101.33453011170532,
          2.9858464976828376
        ],
        [
          101.33030664920659,
          2.9814475828917453
        ],
        [
          101.32418141998316,
          2.9813929982971406
        ],
        [
          101.32169941755849,
          2.9683079176825435
        ],
        [
          101.32003148771099,
          2.9688676720390133
        ],
        [
          101.31897239121272,
          2.9756957129172577
        ],
        [
          101.30901753568207,
          2.983085887122333
        ],
        [
          101.308962,
          2.9872005860338997
        ]
      ]
    ]
  },
  "properties": {
    "name": "Klang River",
    "source": "klang_river_perfect.db (Blender mesh)",
    "length_km": 40.5,
    "vertices": 135
  }
}